{
"type": "FeatureCollection",
"name": "Allikulam_Park_Boundary",
"crs": { "type": "name", "properties": { "name": "urn:ogc:def:crs:OGC:1.3:CRS84" } },
"features": [
{"type":"Feature","properties":{"dist_name":"Thoothukudi","park_name":"Allikulam","lat":8.7863358116216652,"long":78.015647605053402},"geometry":{"type":"MultiPolygon","coordinates":[[[[77.999033940627527,8.806990097234793,0.0],[78.000100140292588,8.806771777345194,0.0],[78.000131717186946,8.806765311516779,0.0],[78.000547799400508,8.806786748847397,0.0],[78.00068666364389,8.806793903391853,0.0],[78.00069030704384,8.806794091716405,0.0],[78.000776260224967,8.8070227254002,0.0],[78.001661495182844,8.807530295117759,0.0],[78.001841212639917,8.807633999291875,0.0],[78.002326253140694,8.8079991888923,0.0],[78.002652829564624,8.808141364212373,0.0],[78.003077884012953,8.808359298931574,0.0],[78.003748555412912,8.808565665282988,0.0],[78.004177057892605,8.8085413589318,0.0],[78.004302670448169,8.808571798342447,0.0],[78.00571308319725,8.808913580520692,0.0],[78.005948730677019,8.808084026816072,0.0],[78.005980797184989,8.80797114255984,0.0],[78.005989850741088,8.807483913326003,0.0],[78.00598812709336,8.807415774012236,0.0],[78.006000298487834,8.807417102117482,0.0],[78.006268358902233,8.807446352047942,0.0],[78.006803995366297,8.807523274382,0.0],[78.007161099442925,8.807574557819402,0.0],[78.007165956816308,8.807590023864481,0.0],[78.007294037155731,8.807804563134114,0.0],[78.007716545560342,8.807833901482793,0.0],[78.008050486395092,8.807875079782425,0.0],[78.008450588340338,8.807287942576915,0.0],[78.008937071406677,8.807128617901512,0.0],[78.00917090885946,8.80642213557147,0.0],[78.009262163493148,8.806164917157227,0.0],[78.009585063211375,8.805654460287045,0.0],[78.009805523963848,8.805281821495603,0.0],[78.010090787674955,8.805156470091553,0.0],[78.010377183165446,8.805040867264745,0.0],[78.011102545754667,8.804752677928009,0.0],[78.011400073033073,8.804575493269581,0.0],[78.011692239967104,8.803359430243084,0.0],[78.011606048802165,8.803311460805123,0.0],[78.011607594755517,8.803262613150991,0.0],[78.011614728165284,8.80303721803736,0.0],[78.011763132997402,8.802903257590373,0.0],[78.012669027423811,8.802192580187208,0.0],[78.012403340839768,8.801713183052028,0.0],[78.011840762779087,8.801770851603486,0.0],[78.012101828428797,8.800983406268035,0.0],[78.012019730144416,8.800809212216599,0.0],[78.011783976678672,8.800312215491441,0.0],[78.011524708171919,8.799765646225197,0.0],[78.011243880100622,8.799818094455622,0.0],[78.011222322955717,8.80002134297056,0.0],[78.010845421260555,8.800100775499619,0.0],[78.010434425808384,8.799509706216661,0.0],[78.0112669737114,8.799262909779873,0.0],[78.01155240668848,8.799212193029762,0.0],[78.011827267403419,8.79910336441244,0.0],[78.012660560593275,8.798832822831365,0.0],[78.013007601464849,8.79871726902331,0.0],[78.01300784558947,8.798639051371838,0.0],[78.013108510254895,8.798317723749753,0.0],[78.013356628112064,8.798087271488992,0.0],[78.013846803524387,8.797631995785631,0.0],[78.013868358110827,8.797620935542502,0.0],[78.014192842472397,8.79786083172695,0.0],[78.014282751009432,8.797927302094687,0.0],[78.015363014727342,8.796798175629821,0.0],[78.015356519256244,8.795696110531656,0.0],[78.01569609712908,8.794777276789006,0.0],[78.015873919910931,8.79457301175383,0.0],[78.016579040251301,8.794457448142863,0.0],[78.01688093608486,8.79382556473886,0.0],[78.01702406652025,8.793393713229841,0.0],[78.01703827285796,8.793305309713984,0.0],[78.017171642872071,8.793658860000278,0.0],[78.017306363215241,8.79445379206811,0.0],[78.017806748726883,8.793735856213624,0.0],[78.01804716466971,8.793631189759871,0.0],[78.018143746731695,8.792833708835767,0.0],[78.018389561633569,8.792498941735337,0.0],[78.018269526635862,8.79199386531679,0.0],[78.019055967154387,8.790859380991797,0.0],[78.018653824898891,8.790319129539348,0.0],[78.018641850989098,8.790306664519941,0.0],[78.018641869638941,8.790306658392476,0.0],[78.01913887248601,8.790039439230602,0.0],[78.019172160660233,8.790021541469912,0.0],[78.019757722376497,8.789706707637537,0.0],[78.020058519489936,8.789410549070553,0.0],[78.020190871564807,8.789279870037102,0.0],[78.020437966842451,8.789693216324675,0.0],[78.021467020601577,8.788623730150396,0.0],[78.021825774172299,8.788443614940217,0.0],[78.021931507864636,8.788307572305897,0.0],[78.022712980974759,8.787302087127111,0.0],[78.022637460144011,8.787230357582038,0.0],[78.02345448843387,8.786315393731915,0.0],[78.023579897580532,8.786250909873626,0.0],[78.023918609323019,8.78674220220174,0.0],[78.02477444893654,8.786057364306687,0.0],[78.024858734463649,8.785885097900096,0.0],[78.025578796044712,8.785487149777506,0.0],[78.026505075702758,8.784643099332968,0.0],[78.026229200802646,8.78427024058051,0.0],[78.026779413504642,8.783904228541859,0.0],[78.026788518279531,8.783923725093974,0.0],[78.026988033745724,8.783838952139986,0.0],[78.027199438724409,8.783781518145963,0.0],[78.027662751517269,8.783335285468192,0.0],[78.027956810145312,8.783067993907537,0.0],[78.028018874885134,8.783127117901893,0.0],[78.028513912671983,8.782837071702357,0.0],[78.028861754538582,8.782552456364327,0.0],[78.029524340294088,8.782036070859375,0.0],[78.029543298535543,8.78201790849481,0.0],[78.029690583625637,8.78187680650985,0.0],[78.030040436076405,8.78158768938173,0.0],[78.030233302750077,8.781428304879265,0.0],[78.030445923435138,8.781776842831515,0.0],[78.030723101754418,8.782351093307193,0.0],[78.030728873332706,8.782363902055904,0.0],[78.03116985411134,8.783342561913571,0.0],[78.032180826462294,8.782514784242034,0.0],[78.03247541146105,8.782263629910423,0.0],[78.032950555283008,8.781051776118531,0.0],[78.032954992351236,8.781039994531916,0.0],[78.033278168204077,8.780712997632365,0.0],[78.033877814318615,8.780112871274962,0.0],[78.034218528955762,8.77975829945929,0.0],[78.03422777250033,8.779748680557985,0.0],[78.034804379923386,8.779004876455827,0.0],[78.035013520008576,8.778455978924555,0.0],[78.035183091611913,8.777990552017279,0.0],[78.035358732417961,8.778340271602707,0.0],[78.035815561375244,8.778296527774245,0.0],[78.035881186412752,8.778541623986705,0.0],[78.035646003886058,8.778879588698228,0.0],[78.035904499599212,8.779208174943875,0.0],[78.036075981999744,8.779105293913155,0.0],[78.03652680720819,8.778781825098321,0.0],[78.03666852793171,8.780102466896736,0.0],[78.036780337237289,8.78040733935306,0.0],[78.037483441175041,8.780187879360659,0.0],[78.037961333922723,8.780071388967968,0.0],[78.03813357243493,8.780029404376199,0.0],[78.038387943139156,8.779990658608812,0.0],[78.038701120447044,8.779942955414528,0.0],[78.038728113156338,8.780031478828855,0.0],[78.038895341407468,8.780579908984489,0.0],[78.039032688726181,8.781030343709908,0.0],[78.039150410094365,8.781416414531316,0.0],[78.0399924769915,8.781184897499406,0.0],[78.039931836759422,8.780483184046998,0.0],[78.0401226330317,8.780434770582923,0.0],[78.040099574951029,8.780131098476689,0.0],[78.040123994105443,8.780124719123132,0.0],[78.04074273389574,8.779961277351029,0.0],[78.040683545670362,8.779748544252131,0.0],[78.0402811526763,8.778235949101239,0.0],[78.041085098858275,8.778076109693043,0.0],[78.041695672239982,8.777954996450068,0.0],[78.041987618437517,8.777948212877734,0.0],[78.042305552634971,8.777903274451299,0.0],[78.042707136958072,8.777720438265161,0.0],[78.043439030852412,8.777534942474054,0.0],[78.043772423070592,8.777452256075447,0.0],[78.043784920292524,8.777723601813543,0.0],[78.044400614870995,8.777652297568661,0.0],[78.045037634017305,8.777568353536671,0.0],[78.04520491220724,8.778256135692638,0.0],[78.045554419130397,8.777844331308565,0.0],[78.046543424293489,8.776576471735972,0.0],[78.045626667712341,8.77680207422933,0.0],[78.045549906821378,8.776324825720817,0.0],[78.044461597065578,8.776537019862809,0.0],[78.044487578459837,8.777153959000858,0.0],[78.044355779961222,8.777169708744427,0.0],[78.044141164638177,8.777119741492841,0.0],[78.044122490281495,8.776899835510225,0.0],[78.044092486504724,8.776546516243235,0.0],[78.043367407918126,8.776643952044427,0.0],[78.042579965156847,8.776852083171827,0.0],[78.042614760740662,8.776969014053813,0.0],[78.04184381923038,8.777082496715773,0.0],[78.041122606174525,8.777204245014739,0.0],[78.04112730673495,8.77729094586603,0.0],[78.040128001351633,8.777523375325622,0.0],[78.040070916291185,8.777546619954686,0.0],[78.040050128892773,8.7774719055605,0.0],[78.040000428143017,8.777197602035285,0.0],[78.039830624589612,8.777207021832597,0.0],[78.039820410947442,8.777263475684773,0.0],[78.039573828344203,8.776550050360205,0.0],[78.039356730930649,8.775894282953766,0.0],[78.039306398536098,8.775757599762631,0.0],[78.039151132045575,8.775335956413716,0.0],[78.038910259709738,8.774987773179564,0.0],[78.038901437011575,8.774980947240305,0.0],[78.038853524675176,8.775018088637403,0.0],[78.038833151896313,8.774927572669608,0.0],[78.03844118688616,8.774621196030065,0.0],[78.038326046465144,8.774567955948914,0.0],[78.038346053495999,8.774546835697812,0.0],[78.038264211674743,8.774437489243192,0.0],[78.038118676213301,8.774243043122732,0.0],[78.037727975602351,8.774559557713671,0.0],[78.037289858547723,8.774912141530137,0.0],[78.037032696997187,8.774485173983756,0.0],[78.036329308609993,8.774676340210229,0.0],[78.036054414251112,8.774161453843394,0.0],[78.035321371386388,8.772798175950529,0.0],[78.035206223010178,8.772835256024377,0.0],[78.035143721601813,8.772713174296578,0.0],[78.035132278985955,8.77274336885459,0.0],[78.034911297042072,8.77225947069987,0.0],[78.034394747612936,8.771264860099883,0.0],[78.034528563320166,8.77112708485712,0.0],[78.034348772918079,8.770788813043172,0.0],[78.034304639071649,8.77080057143756,0.0],[78.034169021788557,8.770836703377764,0.0],[78.033962334018142,8.770103332208594,0.0],[78.033828047259533,8.769626854877771,0.0],[78.033855301612661,8.769527574709304,0.0],[78.033910507357319,8.769326475251749,0.0],[78.033526182664104,8.768631642575109,0.0],[78.033500819201294,8.768585787174546,0.0],[78.033167595560997,8.7679833416955,0.0],[78.032922468831856,8.767540169387473,0.0],[78.03306177087363,8.767234997322142,0.0],[78.032982104447143,8.766630655044199,0.0],[78.032777340523694,8.76618544594715,0.0],[78.032741005862462,8.766193702573284,0.0],[78.032062683033956,8.766347843490049,0.0],[78.032124904637897,8.765910114757473,0.0],[78.032019767076036,8.765518368186218,0.0],[78.032253350543058,8.765423646455874,0.0],[78.032245505607207,8.765319106851527,0.0],[78.032200519286476,8.764719630672921,0.0],[78.032196639984633,8.764667936090937,0.0],[78.032198711694761,8.764352145356147,0.0],[78.032199682049907,8.764204234139799,0.0],[78.03188640400343,8.764256490410821,0.0],[78.031570787603556,8.764309136730333,0.0],[78.031273002634379,8.76435880868223,0.0],[78.030962735582733,8.764410562704969,0.0],[78.030666733729632,8.764459937224609,0.0],[78.030055115478802,8.764561958063402,0.0],[78.029406207095676,8.764670199073965,0.0],[78.029014601425501,8.764755218081966,0.0],[78.028864518684145,8.764787801815928,0.0],[78.028694548696237,8.764824703173254,0.0],[78.028414523072371,8.764885498174383,0.0],[78.028394801499232,8.765099720381192,0.0],[78.028075339061303,8.765132089942242,0.0],[78.028057735185016,8.764922494981484,0.0],[78.028074875333317,8.764780044589534,0.0],[78.028095812485461,8.764606037604386,0.0],[78.027201702766959,8.764632491643113,0.0],[78.02678776650454,8.764644738782014,0.0],[78.026591285000094,8.764709977471698,0.0],[78.026318639043552,8.764800505407161,0.0],[78.025932485388722,8.764945983495092,0.0],[78.025523481449767,8.765100070113855,0.0],[78.02556756933312,8.765444506592381,0.0],[78.025587964767254,8.76560384587064,0.0],[78.025626080138437,8.765901622112747,0.0],[78.025291922851039,8.765987922759788,0.0],[78.024752465207939,8.766127245005343,0.0],[78.024942992873278,8.766998883143733,0.0],[78.025004350370494,8.76727958534835,0.0],[78.0249122512935,8.76731635025055,0.0],[78.024598677781356,8.767441525223893,0.0],[78.024724420818529,8.76812010074665,0.0],[78.024766437372875,8.768346844159051,0.0],[78.024917961579845,8.769164548425373,0.0],[78.024920225887826,8.769176767821429,0.0],[78.025076664700293,8.769909085731479,0.0],[78.02520599300631,8.770610208436228,0.0],[78.024101257911113,8.77094119098272,0.0],[78.023329421563588,8.771157904404861,0.0],[78.022802950825721,8.771327006025215,0.0],[78.022753768015036,8.771130749258067,0.0],[78.02120742287579,8.771547266261273,0.0],[78.021264104585597,8.771807680559551,0.0],[78.020411109741971,8.77194769470208,0.0],[78.020436533100877,8.772216123391891,0.0],[78.020375577767879,8.772224782661578,0.0],[78.020124531053611,8.772232512307751,0.0],[78.019899178481452,8.772334335220128,0.0],[78.019701004564411,8.77242387777647,0.0],[78.01961436370901,8.772293381782328,0.0],[78.019482075083303,8.772521132200117,0.0],[78.01937638771949,8.772703085418943,0.0],[78.01931028041102,8.772806907621998,0.0],[78.019348358241217,8.773150985037981,0.0],[78.019387767816227,8.773832349613143,0.0],[78.019347242012145,8.77426884864329,0.0],[78.019250814808061,8.7747617679796,0.0],[78.019104658857259,8.774849871838153,0.0],[78.019644961580553,8.776509369573327,0.0],[78.01859712310312,8.776668100519766,0.0],[78.018599783833068,8.776742002842665,0.0],[78.018609603618359,8.777014749403817,0.0],[78.018303131774928,8.77706981996324,0.0],[78.01827449904485,8.777061228675716,0.0],[78.018257364028784,8.776856706037412,0.0],[78.017683954451869,8.776944751835238,0.0],[78.017699064917394,8.777010720045636,0.0],[78.017212207523244,8.777078852980084,0.0],[78.017307116175957,8.777430597884264,0.0],[78.017241250535861,8.777447445486512,0.0],[78.015750442267603,8.777795889139822,0.0],[78.015688356032598,8.777492235415822,0.0],[78.015333305187582,8.777584559631622,0.0],[78.015098387503741,8.777645645504929,0.0],[78.014691925056582,8.777751338329523,0.0],[78.014014487343601,8.77792749311546,0.0],[78.01319741066871,8.778139958356181,0.0],[78.012489220561079,8.778261973335439,0.0],[78.012366016632626,8.777987345429487,0.0],[78.011975173702183,8.778027451773543,0.0],[78.011590339002609,8.778206505308649,0.0],[78.011236826135857,8.778443221286693,0.0],[78.011016817950008,8.778590541109507,0.0],[78.01052846918563,8.778497386969756,0.0],[78.010371249164422,8.778398210139976,0.0],[78.010155199660488,8.778261922685356,0.0],[78.00998953249362,8.778157417208256,0.0],[78.009812136715539,8.778045513137128,0.0],[78.009533328182954,8.777869636291593,0.0],[78.009323533386663,8.777829015255888,0.0],[78.009010797177098,8.777717131710908,0.0],[78.008870844471573,8.77770875601213,0.0],[78.008518554912243,8.777835655318626,0.0],[78.008529685660079,8.77765599819768,0.0],[78.008812826754024,8.777616802240811,0.0],[78.008542640953834,8.777162445006347,0.0],[78.007789803857804,8.776895114002608,0.0],[78.007975876439247,8.777273935278014,0.0],[78.00803539892857,8.777605719946365,0.0],[78.007958297966738,8.777688216244856,0.0],[78.007974464464667,8.77777290696954,0.0],[78.008144497746571,8.778663652877084,0.0],[78.008455862247871,8.780252313337936,0.0],[78.008480718298131,8.780343353747158,0.0],[78.007832406578046,8.780503498879735,0.0],[78.008320697874055,8.782735082179949,0.0],[78.006656911350717,8.783004561421063,0.0],[78.005991028971636,8.783077820727895,0.0],[78.005938906116853,8.78339153734991,0.0],[78.006070481591479,8.783849218677705,0.0],[78.006268877494833,8.784539332855433,0.0],[78.006584459593313,8.784775601130388,0.0],[78.006378579901977,8.784835512726648,0.0],[78.006579798900191,8.785720571304028,0.0],[78.006813055456973,8.786571758755914,0.0],[78.006666459421766,8.786646368038568,0.0],[78.005629916649127,8.786875226014903,0.0],[78.005492338348532,8.786225631762877,0.0],[78.005423203512549,8.785899202435898,0.0],[78.005341709038476,8.785514415433168,0.0],[78.005249457024007,8.785130157333338,0.0],[78.005112327748535,8.784558971596844,0.0],[78.004558163057766,8.784653982177618,0.0],[78.004187246793308,8.784717575131646,0.0],[78.004076335545719,8.784736590673816,0.0],[78.003941787531588,8.784759658698858,0.0],[78.003176338980097,8.784890893533269,0.0],[78.002782669483992,8.784964466291592,0.0],[78.002327382459342,8.785049554728888,0.0],[78.002169357787608,8.784650830925989,0.0],[78.001737435295368,8.784668077601697,0.0],[78.001333894653385,8.784684190989431,0.0],[78.000551197265295,8.784784269800562,0.0],[78.000285974507094,8.784836685847756,0.0],[78.000033841330918,8.784874161214798,0.0],[77.999804629751665,8.784908229670972,0.0],[77.999368101407569,8.784973112286451,0.0],[77.998783557693102,8.785059994903737,0.0],[77.998748128124646,8.784975650624551,0.0],[77.998341707717699,8.785023875934188,0.0],[77.998544661672554,8.786386757047595,0.0],[77.998239453446843,8.786436382994228,0.0],[77.9982311319053,8.786281540841461,0.0],[77.997420543211604,8.786378564428484,0.0],[77.996604658484884,8.786348626317643,0.0],[77.99674414728608,8.787456878287331,0.0],[77.996924953156238,8.787929245721235,0.0],[77.996986302292939,8.788180630779372,0.0],[77.997145108244069,8.788140989818496,0.0],[77.99737670108432,8.788892870105407,0.0],[77.99739318018473,8.788946370510393,0.0],[77.997464574364344,8.78908979325932,0.0],[77.997654804242813,8.789480383111085,0.0],[77.997308351903911,8.789637801579456,0.0],[77.997537227257567,8.790259753898853,0.0],[77.997600838032099,8.790432611605583,0.0],[77.997729160585621,8.790584978704985,0.0],[77.997848764922267,8.790891390583571,0.0],[77.997937228149382,8.791045615679835,0.0],[77.9976692908579,8.791150978377141,0.0],[77.997762993097169,8.791661907917412,0.0],[77.997386927175398,8.791712444681469,0.0],[77.996782964331516,8.791793606855377,0.0],[77.996958187767021,8.793745865314133,0.0],[77.997113208256494,8.793659498629145,0.0],[77.997439248662644,8.79369762406168,0.0],[77.997816758393142,8.793605992948308,0.0],[77.997863104349136,8.793802606707343,0.0],[77.998209286485334,8.793995135132041,0.0],[77.998634866324423,8.794231820412522,0.0],[77.998917968440153,8.794669121872852,0.0],[78.00001883652422,8.794909816196048,0.0],[78.001258508450903,8.794735329662347,0.0],[78.001385356252641,8.794717021848017,0.0],[78.003123288034274,8.794451560316691,0.0],[78.00247051326059,8.794854573979769,0.0],[78.001422543302837,8.79527357440403,0.0],[78.001404575465514,8.795117186757354,0.0],[78.000742138813692,8.795284256870241,0.0],[77.999930080812817,8.7954790675851,0.0],[77.999554815919822,8.795508434874748,0.0],[77.99908579498684,8.795353911452974,0.0],[77.999246144686609,8.796120892044096,0.0],[77.999110257168098,8.79623585896587,0.0],[77.998397538542918,8.796638481317915,0.0],[77.998098850703002,8.796719119972126,0.0],[77.997574856433133,8.796860586034976,0.0],[77.996842219019044,8.797120207966607,0.0],[77.996624448543869,8.797197378460954,0.0],[77.996032703687604,8.797407072833177,0.0],[77.995523127791245,8.797552850448493,0.0],[77.995709521208198,8.798514244285135,0.0],[77.995731748246484,8.798829441736073,0.0],[77.995973812033725,8.798757535707733,0.0],[77.996068691001426,8.799060749507216,0.0],[77.997079823403595,8.798964077032318,0.0],[77.997274328665782,8.800639931415382,0.0],[77.997662362237918,8.800546429173966,0.0],[77.997743929507052,8.800852351960442,0.0],[77.997491007596082,8.800905092777079,0.0],[77.997667540892706,8.801555950699397,0.0],[77.998007316393341,8.802710876245694,0.0],[77.998274367725969,8.803604602878005,0.0],[77.99845930096231,8.804818669315035,0.0],[77.998467186263568,8.80487565100788,0.0],[77.998488213685391,8.805027616550927,0.0],[77.998477635877649,8.805036825241425,0.0],[77.998388918806853,8.805114059396844,0.0],[77.998389070767203,8.805262274521656,0.0],[77.998421832585024,8.805549350059433,0.0],[77.9985217486728,8.805733184669778,0.0],[77.998675677657474,8.805881166660042,0.0],[77.998781950139005,8.806076239504971,0.0],[77.999033940627527,8.806990097234793,0.0]]]]}}
]
}
