{
"type": "FeatureCollection",
"name": "Taluk_boundary",
"crs": { "type": "name", "properties": { "name": "urn:ogc:def:crs:OGC:1.3:CRS84" } },
"features": [
{"type":"Feature","properties":{"dist_name":"Tenkasi","talukname":"Sivagiri"},"geometry":{"type":"MultiPolygon","coordinates":[[[[77.35310982,9.41130399],[77.35351021,9.41119665],[77.35471019,9.41134417],[77.35681998,9.4113134],[77.35791157,9.41117168],[77.3598768,9.41077932],[77.36218428,9.41002504],[77.36460324,9.40881344],[77.3667667,9.40731039],[77.3692504,9.40581722],[77.37020517,9.40460192],[77.37086729,9.4033132],[77.37149216,9.40227881],[77.37179467,9.40207056],[77.37232601,9.40183562],[77.3731311,9.40191031],[77.37525445,9.40177019],[77.37671935,9.40146485],[77.37790864,9.401595],[77.37855855,9.40151482],[77.37945688,9.40089911],[77.38085147,9.39943042],[77.38184197,9.39854232],[77.38222857,9.39763455],[77.38248728,9.39663559],[77.38268023,9.39631801],[77.38301938,9.39605225],[77.38321201,9.39590131],[77.38586693,9.3954171],[77.38662502,9.39514544],[77.3866729,9.39512828],[77.38691186,9.39471085],[77.38694972,9.39420206],[77.38720742,9.39360294],[77.38817919,9.39287833],[77.38882134,9.39222562],[77.38952668,9.39192746],[77.39002081,9.39192866],[77.39038679,9.39194773],[77.39089851,9.39223976],[77.39162903,9.39285946],[77.39225069,9.39309724],[77.39358561,9.39353666],[77.39448202,9.39368423],[77.39486519,9.39415769],[77.39513873,9.39455819],[77.39582492,9.39460529],[77.39622665,9.39496975],[77.39662759,9.39566134],[77.39679146,9.39600705],[77.39702929,9.39604398],[77.39741384,9.39595403],[77.39781741,9.39557334],[77.39867833,9.39526645],[77.39921035,9.39474067],[77.39959482,9.39468707],[77.39981417,9.39479665],[77.40025216,9.39530659],[77.40054419,9.39563443],[77.40083701,9.39563513],[77.40133115,9.39563632],[77.40243805,9.39577528],[77.40284077,9.3957399],[77.40293259,9.3956129],[77.40302471,9.39535868],[77.4031545,9.39466836],[77.40324685,9.39432327],[77.40333866,9.39419627],[77.4035768,9.39410596],[77.40432742,9.39399871],[77.40513347,9.3936735],[77.40566483,9.39342033],[77.40614093,9.39331242],[77.40630555,9.39334916],[77.40652477,9.39351325],[77.40674373,9.39378639],[77.40701763,9.39404149],[77.40734701,9.39406045],[77.40773134,9.39406136],[77.40843588,9.3940903],[77.40903956,9.39420079],[77.40924048,9.39436484],[77.40964044,9.39547443],[77.40976732,9.39598362],[77.40985795,9.39634732],[77.41007648,9.39680221],[77.41064304,9.39713069],[77.41139327,9.397187],[77.41261991,9.39700816],[77.4137733,9.39684732],[77.41456918,9.39694916],[77.41493477,9.39713177],[77.4151896,9.39771396],[77.41542648,9.39815071],[77.41555424,9.39829641],[77.41595688,9.39829736],[77.416268,9.39829809],[77.41681714,9.39826304],[77.41701855,9.39822716],[77.41742149,9.39810089],[77.4178056,9.39819267],[77.41848211,9.39846688],[77.4190489,9.39870448],[77.41923153,9.39886848],[77.41959743,9.39892387],[77.41996394,9.39872481],[77.42027593,9.39836205],[77.42096538,9.39704601],[77.42135313,9.39561113],[77.42296763,9.39394286],[77.42351723,9.39370787],[77.42392034,9.3935089],[77.42432276,9.39360071],[77.42468788,9.39398323],[77.42496171,9.39427466],[77.42525402,9.39449344],[77.42580302,9.39451289],[77.42640753,9.39427803],[77.42684745,9.39398826],[77.42909248,9.39267583],[77.43041172,9.3920246],[77.43112688,9.3914265],[77.43195096,9.39121031],[77.43337893,9.39101369],[77.43391931,9.39080593],[77.43439595,9.39046171],[77.434781,9.39015363],[77.43500117,9.38991787],[77.43511119,9.38982725],[77.43507518,9.38957272],[77.43476504,9.38915399],[77.43447362,9.38855356],[77.43456619,9.38809941],[77.43500635,9.38770058],[77.435795,9.38697541],[77.43660241,9.38605036],[77.43702499,9.38534253],[77.43736506,9.38469811],[77.43736781,9.38467056],[77.43742127,9.38413482],[77.43747757,9.38353519],[77.43771684,9.38295415],[77.43819461,9.38211921],[77.43845188,9.38166544],[77.43918488,9.3812491],[77.44101745,9.38018099],[77.44180582,9.37956486],[77.44234769,9.37870279],[77.44245829,9.37835773],[77.44255084,9.37790357],[77.44277083,9.3777405],[77.44348497,9.37756038],[77.44467645,9.37672706],[77.44621575,9.37584],[77.44753473,9.3752614],[77.44803939,9.37465369],[77.44844438,9.37361865],[77.4486288,9.37300113],[77.44905151,9.37222058],[77.44905246,9.37180256],[77.44912721,9.37113027],[77.44952218,9.37046778],[77.44987072,9.37010508],[77.45005414,9.36992374],[77.45005417,9.36991301],[77.45005481,9.36963295],[77.449946,9.36919651],[77.44974628,9.36850542],[77.44905229,9.36788591],[77.44850466,9.36728491],[77.44803006,9.36675677],[77.44744534,9.36637378],[77.44662221,9.36620834],[77.445634,9.3662061],[77.44506662,9.36624116],[77.44457251,9.36624004],[77.44429785,9.36631212],[77.4440772,9.36676598],[77.44400303,9.36718383],[77.44383779,9.36741973],[77.44328853,9.36752752],[77.44269359,9.36760795],[77.44218114,9.36762496],[77.44187033,9.36749703],[77.44166945,9.36731483],[77.44148683,9.36715084],[77.4409565,9.36698605],[77.4405905,9.36698522],[77.44007734,9.36731119],[77.43969253,9.36752841],[77.4393442,9.36780023],[77.4388681,9.36792636],[77.43866692,9.36787138],[77.43852103,9.36765295],[77.4380653,9.36688857],[77.43786624,9.36592486],[77.43781277,9.3653068],[77.43788741,9.36468903],[77.43779684,9.36428898],[77.43752398,9.36357955],[77.4373977,9.36279775],[77.43739854,9.36243425],[77.4374725,9.36210728],[77.43802167,9.36203584],[77.43959482,9.36231206],[77.4411681,9.36253375],[77.4425037,9.36266401],[77.44292468,9.36262862],[77.4433277,9.36244779],[77.44340165,9.36212082],[77.44344539,9.36192743],[77.44302799,9.36147476],[77.44238956,9.36058275],[77.44208068,9.35961879],[77.44206385,9.35898264],[77.44219481,9.35774706],[77.44210545,9.35681995],[77.44174164,9.35587404],[77.44167904,9.35524687],[77.4416071,9.35470146],[77.44160802,9.35430162],[77.44195592,9.35421154],[77.44250495,9.35419462],[77.44406115,9.35387101],[77.44644079,9.35356744],[77.44779561,9.35327971],[77.44991171,9.35218491],[77.45104876,9.35109699],[77.45147022,9.35084349],[77.45322704,9.35081109],[77.45452633,9.35079583],[77.4558519,9.3512986],[77.45669355,9.35135501],[77.45746233,9.35126585],[77.45874451,9.35072347],[77.46035633,9.35007277],[77.46144586,9.34975713],[77.46353222,9.34965271],[77.46472216,9.34943724],[77.46563778,9.34914847],[77.46637036,9.34887747],[77.466737,9.34858748],[77.46673777,9.34824216],[77.46655526,9.34802366],[77.4664277,9.34778711],[77.46655644,9.34749659],[77.46679523,9.34709727],[77.46707921,9.34694341],[77.46768345,9.34678117],[77.46803162,9.34656384],[77.46825194,9.34623718],[77.46821591,9.34598265],[77.46797834,9.34583673],[77.46772215,9.34583617],[77.46620288,9.34603274],[77.46457393,9.34617454],[77.46391508,9.34620943],[77.46349416,9.34622668],[77.46303689,9.34613479],[77.46287314,9.34571641],[77.46278327,9.34498922],[77.46232862,9.34373415],[77.46220142,9.34333402],[77.4616172,9.34273296],[77.46099651,9.34207729],[77.4607775,9.34182236],[77.46070496,9.3415314],[77.46074197,9.34134974],[77.46102586,9.34123223],[77.46109935,9.34110517],[77.46104518,9.3407779],[77.46060761,9.34006812],[77.45982437,9.338467],[77.45973426,9.33784885],[77.45971732,9.33724905],[77.45946282,9.33650332],[77.45928151,9.33575775],[77.45932883,9.33505812],[77.45938524,9.33438578],[77.45953278,9.33387722],[77.46026599,9.33331543],[77.4603949,9.33327422],[77.46094352,9.33309884],[77.46176756,9.33282804],[77.46215285,9.33237453],[77.4624477,9.33144827],[77.46277813,9.33097645],[77.46382301,9.33014272],[77.46575557,9.32921098],[77.46725655,9.32897802],[77.46945303,9.32867387],[77.47024009,9.32856655],[77.47069361,9.32852894],[77.47120093,9.32848686],[77.47169498,9.32848794],[77.47200597,9.32852497],[77.4724255,9.32912566],[77.47342684,9.33141788],[77.4738718,9.33293645],[77.474399,9.33450063],[77.47442052,9.33718146],[77.47452798,9.33823584],[77.47480661,9.34049921],[77.47495232,9.3408085],[77.47499726,9.34082349],[77.47533631,9.34093656],[77.47594017,9.34093788],[77.47692876,9.34074011],[77.4791999,9.33979995],[77.48062904,9.338967],[77.48503243,9.3378224],[77.48704644,9.33729965],[77.4874581,9.3373278],[77.48760382,9.33763709],[77.48774926,9.33807359],[77.48780329,9.33847356],[77.48816887,9.33865609],[77.48954129,9.33865903],[77.49113329,9.33866243],[77.49245084,9.33864707],[77.49285342,9.33864792],[77.49312829,9.33846676],[77.4934304,9.33838562],[77.49388771,9.33845929],[77.49425322,9.33867816],[77.49476543,9.33875195],[77.49533274,9.33873498],[77.49591885,9.33848178],[77.49623051,9.33820982],[77.49648861,9.33731979],[77.49665619,9.3359752],[77.49689649,9.33484887],[77.49695256,9.33430374],[77.49719106,9.33401344],[77.49845445,9.33365262],[77.49943407,9.3333548],[77.50036233,9.3330658],[77.50047779,9.33302985],[77.5020515,9.33301499],[77.5038084,9.33290963],[77.50586802,9.33243231],[77.50661845,9.332343],[77.50800887,9.33247313],[77.50981909,9.33311302],[77.51055921,9.33357803],[77.51107096,9.33386989],[77.5125349,9.33385475],[77.51379773,9.33374832],[77.51467596,9.33380466],[77.51524261,9.33409663],[77.51582778,9.33427959],[77.51684308,9.334418],[77.51803234,9.33449315],[77.51839813,9.33458477],[77.51863552,9.33482154],[77.51868985,9.33509427],[77.51865261,9.33540317],[77.5186886,9.33569405],[77.51896236,9.33603993],[77.51920017,9.33607677],[77.51963942,9.33604133],[77.52022574,9.33567903],[77.52050052,9.33553419],[77.52103122,9.33551711],[77.52159841,9.33555462],[77.52185441,9.33564602],[77.52217337,9.33625553],[77.52273917,9.33696552],[77.52392649,9.33798575],[77.52449203,9.33882295],[77.52479214,9.33970505],[77.52473438,9.34108624],[77.52472846,9.3411104],[77.52480303,9.34115246],[77.52620618,9.34199943],[77.52738502,9.34227746],[77.52783605,9.34224392],[77.52880765,9.34209085],[77.5294147,9.34209208],[77.52993493,9.34214482],[77.53026426,9.34224885],[77.53078487,9.34211209],[77.53095881,9.34187126],[77.53123692,9.34157897],[77.53194894,9.34114113],[77.53304219,9.34086771],[77.5335284,9.34059307],[77.53396211,9.34054226],[77.53443033,9.34057766],[77.53576549,9.34075261],[77.53663225,9.3409783],[77.53736005,9.34130706],[77.53924879,9.34219802],[77.54018447,9.34264779],[77.54068701,9.34287274],[77.54106866,9.34283905],[77.54119097,9.3423914],[77.5411687,9.34225699],[77.54113957,9.34208121],[77.54051573,9.34180434],[77.53864425,9.34095649],[77.53802059,9.34059348],[77.53763922,9.34048935],[77.53722355,9.34019567],[77.53673823,9.34003965],[77.53661706,9.33991882],[77.53658423,9.33900574],[77.53646545,9.3377135],[77.53655266,9.3374725],[77.53686538,9.33721473],[77.53702185,9.33703416],[77.53708734,9.33684033],[77.53709165,9.33682758],[77.53702286,9.33653459],[77.53697195,9.33598323],[77.53685177,9.33538005],[77.53661137,9.33419093],[77.53640436,9.33363926],[77.53605857,9.33310453],[77.53604179,9.33282887],[77.53616386,9.33250181],[77.5364592,9.33226123],[77.53694533,9.33201242],[77.53704985,9.33178868],[77.53710283,9.33132366],[77.53738145,9.33077296],[77.53781644,9.33008477],[77.53804317,9.32946506],[77.53828668,9.32912101],[77.53894641,9.32879502],[77.53970978,9.32867596],[77.54050807,9.32843638],[77.54130655,9.32811066],[77.54252175,9.3275446],[77.54351098,9.32722787],[77.54384075,9.32710793],[77.54404926,9.32691885],[77.54406681,9.32681553],[77.54399799,9.32653976],[77.54373853,9.32619471],[77.54349679,9.3256602],[77.54346325,9.32509165],[77.54339536,9.32435077],[77.54341354,9.32393736],[77.54376124,9.32352461],[77.54475069,9.3230959],[77.54532326,9.32297645],[77.54612082,9.32309861],[77.54662309,9.32344414],[77.5470905,9.32387573],[77.54738486,9.32411749],[77.5477317,9.3241354],[77.54790527,9.32406684],[77.54813108,9.32389501],[77.54821856,9.3235162],[77.54834103,9.32298241],[77.54842816,9.32277586],[77.54862143,9.3215273],[77.54863946,9.3211828],[77.54881386,9.32070079],[77.54897074,9.32030489],[77.54921454,9.31980579],[77.54944117,9.31922052],[77.54965066,9.31853187],[77.54987709,9.31804996],[77.54987767,9.31775711],[77.5499484,9.31707679],[77.5500018,9.31638782],[77.5500381,9.31557823],[77.55003961,9.31482026],[77.5497808,9.3141479],[77.54919223,9.31359549],[77.54903694,9.31319897],[77.54886433,9.31278519],[77.54881282,9.31252668],[77.54890017,9.31220816],[77.54912624,9.31189852],[77.54938721,9.31148559],[77.54964835,9.31098653],[77.54977081,9.31045274],[77.54970216,9.31009084],[77.54959882,9.30972888],[77.54948736,9.30957322],[77.54942588,9.30948736],[77.54881884,9.30950339],[77.54753565,9.30941473],[77.54651249,9.30937826],[77.54479517,9.30956437],[77.54333734,9.31007828],[77.54213971,9.31055826],[77.5414277,9.31103058],[77.54109819,9.31102992],[77.54078626,9.31090871],[77.54043982,9.3107013],[77.53985072,9.3104245],[77.5393826,9.31035466],[77.53903554,9.31045733],[77.53886124,9.31088765],[77.53898184,9.31128411],[77.53913719,9.31164618],[77.5390845,9.31197338],[77.53870237,9.31226548],[77.53812907,9.31274668],[77.53727738,9.31367522],[77.53666895,9.3143803],[77.53663353,9.31474199],[77.5367878,9.31563809],[77.53680378,9.31630997],[77.53674918,9.31757602],[77.53671355,9.31804107],[77.53659152,9.31835091],[77.53622643,9.31878085],[77.53594852,9.31898701],[77.5356362,9.31905529],[77.53515066,9.31901986],[77.53473474,9.31886399],[77.53440564,9.31865661],[77.5340592,9.31844919],[77.53346988,9.31827574],[77.53265461,9.318343],[77.53206459,9.31851408],[77.53140467,9.31894342],[77.53105717,9.3192528],[77.53098728,9.31950244],[77.53084801,9.31976056],[77.53060478,9.31996679],[77.5302577,9.32006945],[77.52991094,9.32001707],[77.52951237,9.31986122],[77.5291661,9.31956767],[77.52902824,9.31913672],[77.5285793,9.31817112],[77.52832,9.31775715],[77.52793997,9.31701563],[77.52783722,9.31637804],[77.52785594,9.31570623],[77.52804781,9.31517259],[77.5281358,9.31455261],[77.52817141,9.31410479],[77.52813723,9.31385493],[77.52791231,9.31359608],[77.52744426,9.31349177],[77.52683726,9.31349054],[77.52605633,9.31373012],[77.52562268,9.3137637],[77.52524114,9.31376292],[77.52447784,9.31386473],[77.52380096,9.31410452],[77.52319364,9.31425833],[77.52286416,9.31424043],[77.52251769,9.31405023],[77.5222583,9.31368794],[77.52196461,9.31313608],[77.52165419,9.31229134],[77.52148288,9.311266],[77.52134624,9.31024935],[77.52098422,9.30919778],[77.5209161,9.30859471],[77.52079602,9.30795707],[77.5208498,9.30711308],[77.52072933,9.30666494],[77.52048791,9.30600121],[77.52033261,9.30562191],[77.51972655,9.30517278],[77.51870449,9.30461943],[77.5174223,9.30406554],[77.51728402,9.30384131],[77.51700744,9.30341008],[77.51674799,9.30308224],[77.51584758,9.30240855],[77.5152582,9.30228675],[77.5143388,9.30240544],[77.51402612,9.30265458],[77.51378329,9.30267131],[77.51359259,9.30263646],[77.51317721,9.30223939],[77.51262438,9.30122187],[77.51202058,9.29970468],[77.5113809,9.29875589],[77.51101777,9.29825556],[77.51096621,9.29803151],[77.51120925,9.29791143],[77.51155617,9.29787769],[77.51162582,9.29774002],[77.51160884,9.29756772],[77.51134954,9.29717097],[77.51105574,9.29668802],[77.51019314,9.29454151],[77.50943574,9.29185258],[77.5094189,9.2917461],[77.50928171,9.29087895],[77.50928276,9.29037938],[77.50930112,9.28989708],[77.50931922,9.28953535],[77.5093049,9.28914428],[77.50673519,9.28889578],[77.5040376,9.28869873],[77.50216067,9.28784084],[77.49922138,9.28792289],[77.49671406,9.2888748],[77.49382418,9.28848582],[77.49132014,9.28790621],[77.49122317,9.28548358],[77.48901915,9.28254112],[77.48593413,9.28330028],[77.4824641,9.28386715],[77.47995677,9.28481894],[77.47591027,9.28461876],[77.47529535,9.28449521],[77.47302088,9.28403819],[77.47244908,9.28116542],[77.47243956,9.27853966],[77.47243525,9.27735142],[77.47242421,9.27430677],[77.47285935,9.26987164],[77.47190385,9.2662323],[77.4719089,9.26393509],[77.47413169,9.26409766],[77.47460627,9.26413237],[77.47923147,9.26395092],[77.48138786,9.26281824],[77.48597803,9.26300819],[77.48867705,9.26243963],[77.49022276,9.26052855],[77.49047016,9.25895335],[77.4906135,9.25804071],[77.49043148,9.25306299],[77.48862133,9.25363096],[77.48618933,9.25439403],[77.48233253,9.25572584],[77.48214357,9.25400252],[77.48271102,9.25254618],[77.48311244,9.25151592],[77.48355871,9.2452776],[77.48324448,9.24163862],[77.48322007,9.24151286],[77.48316965,9.24077201],[77.4854516,9.23907758],[77.48834354,9.23831798],[77.48776713,9.23755101],[77.48584234,9.23658974],[77.48624263,9.23491562],[77.48635114,9.23446181],[77.48669969,9.23458251],[77.48685915,9.23446631],[77.48751999,9.2335547],[77.48844083,9.23267809],[77.48891014,9.23213645],[77.48925755,9.23184433],[77.48930982,9.23172385],[77.48924062,9.2316548],[77.48899791,9.23163706],[77.4885122,9.23173939],[77.48807877,9.23172125],[77.4878696,9.23168909],[77.48835916,9.23104344],[77.48913317,9.22951359],[77.48814604,9.22889123],[77.48647006,9.22783458],[77.48547718,9.2272086],[77.48240093,9.22413907],[77.48143961,9.22317984],[77.4807936,9.22194877],[77.48245265,9.22177884],[77.48369365,9.22165173],[77.48491445,9.22165432],[77.48491626,9.22081338],[77.48491635,9.22077178],[77.48490509,9.22076851],[77.48485387,9.21904095],[77.48485573,9.21817949],[77.48462187,9.21724157],[77.48469391,9.21695784],[77.48473212,9.21680736],[77.48456304,9.21591498],[77.48732019,9.21608979],[77.48867172,9.21758824],[77.48987114,9.21983417],[77.49183024,9.21879139],[77.49319231,9.21535438],[77.49560391,9.21386384],[77.49786496,9.21237297],[77.499072,9.21102945],[77.50057914,9.21013523],[77.50238637,9.2096903],[77.50464236,9.21059234],[77.50645084,9.20954915],[77.5067547,9.20820374],[77.50667933,9.20511678],[77.50667557,9.20496277],[77.50683753,9.20438168],[77.50719481,9.2030998],[77.50745282,9.20091779],[77.50747191,9.20120004],[77.50827771,9.19968193],[77.50572137,9.19848018],[77.50379977,9.19942109],[77.50317355,9.19972772],[77.50243896,9.19999142],[77.50087607,9.19879169],[77.50075943,9.19699673],[77.50033904,9.19474292],[77.49984993,9.19150759],[77.49955047,9.19075917],[77.49884211,9.18905988],[77.49698526,9.18962533],[77.49523504,9.19004563],[77.49306559,9.19099827],[77.49029354,9.19218892],[77.4869393,9.19298594],[77.48679977,9.19301909],[77.48523003,9.19504978],[77.48136724,9.19946853],[77.4760609,9.20316626],[77.47292982,9.20327917],[77.46666817,9.20326562],[77.46561144,9.2038019],[77.46563026,9.20333021],[77.46575153,9.20300703],[77.46575194,9.20282335],[77.46569634,9.20251976],[77.46560837,9.20231992],[77.46558277,9.20229266],[77.46548809,9.20219188],[77.46521487,9.20216733],[77.46473251,9.20222218],[77.46445932,9.20218165],[77.46421827,9.20214918],[77.46391282,9.20216449],[77.46370361,9.20226785],[77.46322102,9.20242652],[77.46300388,9.20248594],[77.46236889,9.20250053],[77.46158988,9.20221931],[77.46115653,9.20191489],[77.46110083,9.20166321],[77.46079574,9.20151081],[77.46043429,9.2014062],[77.4601367,9.20150138],[77.46003979,9.2017088],[77.45988559,9.2023793],[77.45973272,9.20245084],[77.45931442,9.20260964],[77.45928174,9.20284915],[77.4591127,9.20296059],[77.45899235,9.20286449],[77.45887213,9.20271249],[77.45843007,9.20271152],[77.45748176,9.20266551],[77.45584379,9.2019192],[77.4549445,9.20151392],[77.45425442,9.20100528],[77.45402152,9.20092491],[77.4535874,9.20097187],[77.45293544,9.2013857],[77.45245295,9.20149644],[77.45192164,9.20187061],[77.45055492,9.2020313],[77.44987943,9.20218952],[77.44923066,9.20255108],[77.44912296,9.2026111],[77.44897708,9.20314984],[77.44901543,9.2039645],[77.44908606,9.20472334],[77.44932593,9.2052789],[77.44930959,9.20539865],[77.44908422,9.2055419],[77.44849728,9.20562845],[77.44685761,9.20564077],[77.44515312,9.20588054],[77.44336851,9.20600832],[77.44167961,9.20646373],[77.43998179,9.20730245],[77.43893596,9.20771936],[77.43824468,9.20774576],[77.43783627,9.20767917],[77.43769833,9.20765668],[77.43735402,9.20762099],[77.4372256,9.20726843],[77.43688613,9.20688499],[77.4368062,9.20658669],[77.4367763,9.20652869],[77.43665461,9.20629267],[77.43651172,9.20611436],[77.43569698,9.20597904],[77.43524044,9.20587121],[77.43486417,9.20591486],[77.43447869,9.20606527],[77.43416496,9.2061758],[77.43372908,9.20669436],[77.43307801,9.20696564],[77.43280107,9.20747996],[77.43260734,9.20783974],[77.43213668,9.20810869],[77.43213668,9.20871383],[77.43193496,9.20938622],[77.43106087,9.20925174],[77.4300523,9.20925174],[77.42890925,9.20938622],[77.4283041,9.20905002],[77.42756448,9.20844488],[77.4274675,9.207669],[77.4272202,9.20766843],[77.42670064,9.20770284],[77.42611777,9.20800408],[77.42591153,9.20810595],[77.42558846,9.20838109],[77.42535517,9.20855854],[77.42452236,9.20849434],[77.42409265,9.20840436],[77.42396697,9.20852866],[77.42379612,9.20882195],[77.42346351,9.20934624],[77.42288893,9.20992782],[77.4222791,9.21026459],[77.42160615,9.21077919],[77.42075415,9.21126224],[77.41961548,9.21176687],[77.41912253,9.21190812],[77.41823513,9.21220419],[77.41745543,9.21240707],[77.41703459,9.21235271],[77.41646177,9.2121823],[77.41563924,9.21154855],[77.41529895,9.21152106],[77.41480707,9.21120845],[77.41444092,9.21075374],[77.41430657,9.21075343],[77.41379479,9.2112862],[77.41381059,9.21218505],[77.41370251,9.21244288],[77.41364797,9.21278092],[77.41375288,9.21387576],[77.41380502,9.21455222],[77.41323018,9.21520189],[77.41319324,9.2151764],[77.41230719,9.21468612],[77.41132593,9.21406001],[77.41072581,9.21387214],[77.40966212,9.21346959],[77.40898707,9.21322391],[77.40826459,9.21283232],[77.40799877,9.21268931],[77.40774644,9.21261413],[77.4072346,9.21261293],[77.40669546,9.21261167],[77.40567124,9.21283643],[77.40442199,9.21298267],[77.40351385,9.21318057],[77.40303614,9.21317945],[77.40257847,9.21335467],[77.40229846,9.21344216],[77.40203912,9.21344155],[77.40121414,9.21311074],[77.40064158,9.21281782],[77.40014439,9.21239624],[77.40000863,9.21209078],[77.39996168,9.21174824],[77.39996369,9.21090743],[77.40001878,9.21069736],[77.40029341,9.21000976],[77.40050052,9.20901347],[77.40057172,9.20777615],[77.40032165,9.20675845],[77.40022692,9.20641579],[77.40024921,9.2056564],[77.4002293,9.20541903],[77.40017256,9.20542735],[77.39995623,9.20545907],[77.39971044,9.20550595],[77.39929415,9.20550497],[77.39895314,9.20541941],[77.39688505,9.20553996],[77.39548655,9.20532984],[77.39449713,9.20528002],[77.39399185,9.2053941],[77.39368438,9.20554932],[77.3933562,9.20579943],[77.39310989,9.2060633],[77.39301351,9.20641228],[77.39259867,9.20863877],[77.39240456,9.20989275],[77.39224664,9.21029244],[77.39204148,9.21046825],[77.39189124,9.21050857],[77.39175465,9.21054893],[77.39155017,9.21044673],[77.39123667,9.21026969],[77.3911412,9.21023895],[77.39084018,9.21054336],[77.39074192,9.21061706],[77.39074883,9.21083084],[77.39076701,9.2117883],[77.39105227,9.21252232],[77.39164461,9.21344041],[77.39164289,9.21415337],[77.39174363,9.21488695],[77.39207039,9.21541737],[77.39206944,9.21580971],[77.39185006,9.21579161],[77.3910537,9.21578742],[77.39008658,9.2159612],[77.38912778,9.21650547],[77.38851445,9.21695223],[77.38837578,9.21718973],[77.38822291,9.21758499],[77.38727185,9.21872843],[77.38601718,9.21978423],[77.38477187,9.22077145],[77.38373434,9.22150075],[77.38313964,9.22185378],[77.38191814,9.22251173],[77.38151228,9.22282176],[77.38095488,9.22298507],[77.38062772,9.22311463],[77.37947225,9.22312327],[77.37829838,9.223125],[77.37812325,9.22320691],[77.37791597,9.22326129],[77.37794789,9.22338257],[77.37791529,9.223538],[77.37771235,9.22369758],[77.37756018,9.22380241],[77.37738032,9.22393461],[77.3769659,9.22397934],[77.3768781,9.22411634],[77.37682213,9.22441578],[77.37661362,9.22496412],[77.3765717,9.22516526],[77.37644266,9.22522441],[77.37627692,9.22522858],[77.3760556,9.22537668],[77.37564489,9.22578275],[77.37496298,9.22603035],[77.37406412,9.22651526],[77.37340888,9.22714255],[77.37289096,9.22809033],[77.37254807,9.2289928],[77.37222344,9.22995934],[77.37221235,9.23071855],[77.37225296,9.23105253],[77.37235844,9.23121287],[77.37234894,9.23133176],[77.37226119,9.23144589],[77.37214147,9.23145931],[77.37174099,9.23144919],[77.37127655,9.23124453],[77.3701598,9.23048027],[77.36954435,9.22990706],[77.36939759,9.22968716],[77.36936131,9.22946525],[77.3689755,9.22911213],[77.36883749,9.2290752],[77.36805946,9.22909159],[77.36765894,9.22910204],[77.36731394,9.228996],[77.36710222,9.22898176],[77.36687664,9.22898578],[77.36680287,9.22903133],[77.36645275,9.22913567],[77.36630519,9.22923592],[77.36616688,9.22931791],[77.36597366,9.22926941],[77.36537101,9.22910785],[77.36502609,9.22897436],[77.36470382,9.22898501],[77.36425221,9.22917599],[77.36403581,9.22918918],[77.36354786,9.2291834],[77.36311973,9.2291892],[77.36210396,9.22855324],[77.36113899,9.22785108],[77.36060553,9.22763709],[77.3592948,9.22714218],[77.3584902,9.22674684],[77.35810827,9.22668644],[77.35760212,9.226596],[77.3570869,9.22645293],[77.35686612,9.22637921],[77.3566497,9.22640154],[77.35639634,9.22647409],[77.35592274,9.22625566],[77.3550121,9.22592409],[77.3548234,9.2259099],[77.35456549,9.225955],[77.35440885,9.2260072],[77.35300569,9.22565839],[77.35166609,9.22566649],[77.35040873,9.22591718],[77.34916545,9.22606271],[77.34794032,9.22630891],[77.34677897,9.22682053],[77.34557287,9.22682436],[77.34438611,9.22646692],[77.34337806,9.22643007],[77.34246597,9.22667246],[77.34189459,9.22689056],[77.34118533,9.22702369],[77.33991487,9.22699532],[77.33898893,9.22725139],[77.33805909,9.22723302],[77.33645306,9.22702085],[77.33579511,9.22689111],[77.33493455,9.22678602],[77.33393568,9.2267606],[77.33374264,9.22664577],[77.33337469,9.22652134],[77.33306627,9.22651599],[77.3326794,9.22658818],[77.33207144,9.22697074],[77.33185243,9.22683129],[77.33124587,9.2265458],[77.33112136,9.22634139],[77.33124692,9.22613763],[77.33150684,9.22578336],[77.33161449,9.2255973],[77.33155238,9.22543742],[77.33104445,9.22500134],[77.33092927,9.22464611],[77.33093021,9.22428231],[77.33096641,9.2241005],[77.3314062,9.22325866],[77.33188074,9.22278959],[77.33227393,9.22270186],[77.33326729,9.22191024],[77.33460999,9.22071576],[77.33491416,9.22051245],[77.33546794,9.22048724],[77.33582558,9.22032843],[77.33600515,9.21995621],[77.33638154,9.21945139],[77.33670413,9.21903073],[77.33753575,9.21861579],[77.33781342,9.21829706],[77.33812673,9.21801391],[77.33847524,9.21793049],[77.34052321,9.21682208],[77.34131011,9.21643364],[77.34178373,9.21631948],[77.34225746,9.21616096],[77.34274885,9.21608234],[77.34313334,9.21589697],[77.34390134,9.21591221],[77.34496506,9.21572941],[77.344899,9.21727251],[77.34547207,9.21921218],[77.34648138,9.22007615],[77.3465629,9.22030474],[77.34664413,9.22053252],[77.34719878,9.22208796],[77.34806398,9.22280799],[77.34914757,9.22288249],[77.35016,9.2225261],[77.35081171,9.22195344],[77.35157411,9.22044794],[77.35168309,9.22023274],[77.35190256,9.2191565],[77.35183467,9.21743345],[77.35140661,9.2152788],[77.35061513,9.21398467],[77.35017401,9.21306231],[77.34982456,9.21233161],[77.34991047,9.21117747],[77.34997415,9.21032197],[77.3501626,9.21023516],[77.35105915,9.20982218],[77.35214434,9.20925059],[77.35250739,9.20853363],[77.35251264,9.20645184],[77.35251663,9.20487255],[77.35247839,9.20468983],[77.3522996,9.20383538],[77.35223108,9.2035079],[77.35178385,9.20258716],[77.35167982,9.20259674],[77.35145081,9.20259617],[77.35143499,9.20259623],[77.35076375,9.20259883],[77.3504284,9.2028518],[77.34982811,9.20337543],[77.3490259,9.20363598],[77.34877012,9.20376662],[77.34803015,9.2037954],[77.34750152,9.20384659],[77.34513064,9.20661609],[77.34524748,9.20632356],[77.34524784,9.20618159],[77.34506064,9.20604802],[77.34481053,9.20606957],[77.34409705,9.2056951],[77.34398998,9.20565934],[77.3439096,9.20565914],[77.34381126,9.20570326],[77.34364119,9.20585368],[77.34357852,9.20591563],[77.34328373,9.20595038],[77.34313187,9.20596775],[77.34288186,9.20594937],[77.34277493,9.20586037],[77.34270384,9.20571822],[77.34270407,9.20562949],[77.34280307,9.20532804],[77.34310741,9.20505374],[77.34335768,9.20496563],[77.34370633,9.20482454],[77.34371961,9.20472106],[77.34372455,9.20468261],[77.34372484,9.20456726],[77.34355542,9.20446923],[77.34329655,9.20442421],[77.34316284,9.20432627],[77.34266327,9.20412092],[77.34253172,9.20398956],[77.34231551,9.20391153],[77.34132516,9.2035541],[77.34083417,9.20348187],[77.3407177,9.20362799],[77.34019802,9.20430105],[77.33995649,9.20446016],[77.33972403,9.20456605],[77.33934005,9.20455621],[77.33907225,9.20451116],[77.33854598,9.20427026],[77.33830525,9.2041188],[77.33765367,9.20398405],[77.33749278,9.20404132],[77.3370916,9.20377411],[77.33682376,9.20374681],[77.33626997,9.20378977],[77.33524348,9.20359196],[77.33468112,9.20349292],[77.33452013,9.20359012],[77.33456399,9.20389636],[77.33449109,9.20446407],[77.33427626,9.20465873],[77.3340171,9.20472906],[77.33362398,9.20479905],[77.33321314,9.20481575],[77.33271304,9.20481448],[77.33224026,9.20460919],[77.33184801,9.20434199],[77.33150873,9.20431451],[77.33123167,9.2043981],[77.33006137,9.2045637],[77.32939125,9.20469509],[77.32848945,9.20463068],[77.32799848,9.204554],[77.32673155,9.20409822],[77.32635657,9.20406177],[77.32551733,9.20397975],[77.32489237,9.20391604],[77.32423158,9.2038966],[77.32401792,9.20363872],[77.32404529,9.20341696],[77.32426915,9.20318683],[77.32510173,9.20239038],[77.32553101,9.2021519],[77.32588817,9.20217056],[77.32673649,9.20219492],[77.3279597,9.20228678],[77.32846889,9.20222597],[77.32883546,9.20205831],[77.32914033,9.20157994],[77.32915948,9.20108308],[77.32900898,9.20057249],[77.328636,9.19976407],[77.32813724,9.19924814],[77.32763802,9.19891412],[77.32661195,9.19856544],[77.32606787,9.19830672],[77.32591705,9.19792478],[77.32585539,9.19759631],[77.32586485,9.19739225],[77.32594571,9.19720612],[77.32608956,9.19683381],[77.32632289,9.19639075],[77.32663581,9.19624957],[77.32736822,9.19619821],[77.32777936,9.19606172],[77.32869195,9.19539856],[77.32895138,9.19522176],[77.32936223,9.19519619],[77.32965731,9.19504609],[77.33015767,9.19494089],[77.33059524,9.19494201],[77.33098901,9.1946147],[77.33119541,9.1942248],[77.33120427,9.1941474],[77.33185646,9.1940411],[77.33092153,9.19238764],[77.32977668,9.19032138],[77.32941291,9.18908164],[77.33107601,9.18851159],[77.3322297,9.18937596],[77.33330727,9.19174764],[77.33428208,9.19253875],[77.33466523,9.19230368],[77.33510337,9.19208296],[77.33534412,9.19222554],[77.33543258,9.19255408],[77.33551263,9.19267851],[77.33583379,9.19280355],[77.33613631,9.19323467],[77.33721349,9.1945462],[77.33825588,9.19549828],[77.33855046,9.19554339],[77.33900589,9.19554454],[77.33924683,9.19561614],[77.33963986,9.19557276],[77.33991683,9.19552022],[77.34012256,9.19539208],[77.34236427,9.19529568],[77.34403508,9.19495382],[77.3445183,9.19456461],[77.34486776,9.19409964],[77.3449049,9.19354071],[77.34479025,9.19297253],[77.34465698,9.192706],[77.34430918,9.19251879],[77.34416682,9.19231434],[77.3440514,9.19204785],[77.3437134,9.19151904],[77.34329489,9.19104771],[77.34318219,9.19099604],[77.34308082,9.19094956],[77.34276829,9.1909399],[77.34208968,9.19091158],[77.3412424,9.19048796],[77.34097426,9.19026688],[77.33991462,9.1893932],[77.33927257,9.18903665],[77.33843405,9.18868404],[77.33781007,9.18824768],[77.33713181,9.18808624],[77.33694471,9.18791718],[77.33690038,9.18779284],[77.33699879,9.1877221],[77.33749,9.18769672],[77.33765988,9.18761729],[77.33797244,9.18760921],[77.33828504,9.18759225],[77.33866998,9.18722054],[77.33876891,9.18694572],[77.33894868,9.18648476],[77.3390926,9.18607695],[77.33920938,9.18580661],[77.3389433,9.18509608],[77.33879208,9.18486499],[77.33844411,9.18474876],[77.33786456,9.18440124],[77.33749848,9.18438257],[77.33735583,9.18429348],[77.33735615,9.18416925],[77.33753543,9.1839035],[77.3379023,9.18361161],[77.33803686,9.18337237],[77.33793927,9.18312367],[77.33775256,9.18280376],[77.33767205,9.18269317],[77.33766511,9.18268365],[77.33749647,9.18274673],[77.33670101,9.18304084],[77.33580555,9.18317541],[77.33497847,9.18329971],[77.33380652,9.18362922],[77.33335476,9.18375624],[77.33202974,9.1839503],[77.33103661,9.18384906],[77.32848637,9.18405644],[77.32760271,9.18403696],[77.3267977,9.18401922],[77.32677362,9.18401132],[77.32497804,9.18342231],[77.32246378,9.18252748],[77.32057919,9.18143683],[77.31859502,9.18044463],[77.31558632,9.17870945],[77.31429779,9.17762031],[77.31343981,9.17649938],[77.31344085,9.17610455],[77.31344232,9.1755452],[77.3135764,9.17492039],[77.31360642,9.17454542],[77.31360921,9.17451052],[77.31361064,9.17449274],[77.31344542,9.1743607],[77.31335126,9.17439784],[77.31333183,9.17440551],[77.31332134,9.17440965],[77.31321877,9.1744501],[77.31311396,9.17449145],[77.31293581,9.17469689],[77.31271541,9.17495106],[77.31271535,9.17497435],[77.3127143,9.17537466],[77.3127142,9.1754117],[77.31268005,9.17580645],[77.31238118,9.1761347],[77.31183017,9.17633587],[77.3114863,9.17646141],[77.31035767,9.17696366],[77.30979559,9.17721379],[77.30960614,9.17730178],[77.309232,9.17747555],[77.30860187,9.1774971],[77.30833789,9.17750612],[77.30770877,9.17763837],[77.30744236,9.17769437],[77.30741023,9.17770112],[77.30734114,9.17772504],[77.30618395,9.17812566],[77.30560655,9.17865748],[77.3054537,9.17879827],[77.3053733,9.17895094],[77.30502107,9.17961971],[77.3046869,9.18077044],[77.30435159,9.18234891],[77.30429286,9.18324462],[77.30428984,9.18329073],[77.30428257,9.18340163],[77.30398316,9.18392729],[77.3034185,9.18458387],[77.30248951,9.1852724],[77.30113085,9.18566367],[77.30072746,9.18578168],[77.29990471,9.18602238],[77.29950434,9.18598816],[77.29911018,9.18595448],[77.29834885,9.18585377],[77.29771839,9.18567656],[77.29752165,9.18562127],[77.2969512,9.18529223],[77.29666204,9.18512545],[77.29641409,9.1849551],[77.29613321,9.18476212],[77.2958684,9.18472852],[77.29569198,9.18483744],[77.29560306,9.18489234],[77.29543661,9.18522093],[77.2947077,9.18538351],[77.29288399,9.18631642],[77.29208813,9.18674204],[77.29089546,9.1869692],[77.2894183,9.18712831],[77.28940494,9.18712975],[77.28927488,9.18721198],[77.2885757,9.18765399],[77.28685135,9.18857067],[77.28477102,9.18997344],[77.28476142,9.18997991],[77.28467184,9.19014873],[77.28402919,9.19135987],[77.28349804,9.19185199],[77.28266843,9.19250783],[77.28203668,9.19346032],[77.28117355,9.19426412],[77.27905179,9.19517969],[77.27722894,9.19576703],[77.27606799,9.19648776],[77.27434122,9.19825984],[77.27311277,9.19944101],[77.27205151,9.20003038],[77.27069267,9.20045443],[77.27042755,9.20060545],[77.27038107,9.20063192],[77.27047953,9.20069025],[77.2705431,9.20072792],[77.27068382,9.20169091],[77.27086053,9.20363049],[77.27097374,9.20513145],[77.27103734,9.20537108],[77.27129201,9.20571929],[77.2721244,9.20645197],[77.27389373,9.20825649],[77.27520819,9.20969008],[77.27571749,9.21055828],[77.27581291,9.21087479],[77.27589008,9.21146253],[77.27597194,9.21162078],[77.27630397,9.2119193],[77.27664055,9.21229915],[77.27769584,9.21333932],[77.27957451,9.21485903],[77.28014314,9.21531132],[77.28155799,9.21612101],[77.28211298,9.21657782],[77.28227211,9.21689435],[77.28239939,9.21730583],[77.28228989,9.21819188],[77.28227157,9.2185852],[77.28214379,9.21967471],[77.281907,9.22018096],[77.28135159,9.22106692],[77.28101935,9.22136068],[77.28044573,9.22210644],[77.28017257,9.22251773],[77.2797582,9.22344892],[77.2795533,9.22381506],[77.27906152,9.22478692],[77.27840584,9.22608422],[77.27726314,9.22777016],[77.27691247,9.22856122],[77.27611567,9.22996694],[77.27575139,9.23068113],[77.27556004,9.23130502],[77.27555971,9.23225442],[77.27557773,9.23277434],[77.27541829,9.23326706],[77.27505395,9.23417563],[77.27432097,9.23512483],[77.27472131,9.23540978],[77.2757541,9.23585317],[77.27639103,9.23629645],[77.2774511,9.23693879],[77.27842465,9.23762181],[77.27953461,9.23864848],[77.27973926,9.2390283],[77.28015302,9.24000947],[77.28015277,9.24076901],[77.28007053,9.24181331],[77.28004282,9.24298882],[77.279519,9.24445793],[77.27889485,9.24656454],[77.27861213,9.24825981],[77.27870743,9.24903297],[77.27893006,9.25007742],[77.27900148,9.25148486],[77.27904474,9.25189916],[77.28107841,9.25358286],[77.28190308,9.25463031],[77.28252212,9.25600658],[77.28267839,9.25700152],[77.28259131,9.2585479],[77.28221507,9.2595549],[77.28162734,9.26114448],[77.28148187,9.2624235],[77.28166098,9.26332861],[77.28244686,9.26527981],[77.28350068,9.26728608],[77.28296823,9.26871744],[77.2820764,9.27140054],[77.28173207,9.27232616],[77.28198999,9.27281527],[77.2831348,9.27341584],[77.28470426,9.27375505],[77.28758006,9.27396801],[77.28850784,9.27418348],[77.28767205,9.27652238],[77.28763118,9.2779287],[77.28802433,9.28024026],[77.28786135,9.28135653],[77.28736611,9.2824222],[77.28691392,9.28302216],[77.28586794,9.28416714],[77.28534932,9.28535434],[77.28517331,9.28638013],[77.28561637,9.28735833],[77.28567339,9.28794624],[77.28475632,9.28858089],[77.28361244,9.29041766],[77.28320437,9.29132059],[77.28318704,9.29243699],[77.28384704,9.29393141],[77.2827185,9.29658159],[77.28218447,9.2985511],[77.28259571,9.29947502],[77.28296756,9.30133892],[77.28429368,9.30082324],[77.28479445,9.3007524],[77.2855454,9.30087281],[77.28660377,9.3015677],[77.28714017,9.30174105],[77.28808313,9.30156765],[77.28847397,9.30165499],[77.28883738,9.301887],[77.28918863,9.30318112],[77.28942382,9.30367929],[77.2897456,9.30403279],[77.29165742,9.30405225],[77.29278102,9.3042639],[77.29366258,9.30476873],[77.29428792,9.30553003],[77.29527196,9.30683077],[77.29604138,9.30823029],[77.29727431,9.30832046],[77.29748745,9.30866488],[77.29775307,9.30962431],[77.29828879,9.31006896],[77.29951949,9.31091826],[77.29935898,9.31265858],[77.29946375,9.31418708],[77.29976665,9.31470334],[77.30061868,9.31603511],[77.30203252,9.3179342],[77.30231775,9.31854093],[77.30250085,9.31954098],[77.30212006,9.32055254],[77.30188817,9.32179536],[77.30191524,9.32200583],[77.30203475,9.32293501],[77.3017852,9.32424571],[77.30107136,9.32539605],[77.29963769,9.32662167],[77.29797693,9.32784601],[77.29717281,9.32880243],[77.29701127,9.32952073],[77.2974241,9.32992463],[77.29861998,9.3302765],[77.29956823,9.32994476],[77.30051132,9.32969443],[77.30097874,9.33012095],[77.30097664,9.33069078],[77.30024389,9.33207174],[77.30038586,9.33333858],[77.29995672,9.33507759],[77.29995618,9.33665577],[77.30143349,9.33740183],[77.30226196,9.33753128],[77.3031239,9.33695528],[77.30444582,9.33780916],[77.30578879,9.33779536],[77.30911029,9.3370644],[77.31000344,9.33664219],[77.31009136,9.33619456],[77.31080887,9.33543249],[77.3126215,9.33511261],[77.31559949,9.33486414],[77.31718755,9.3351133],[77.31838724,9.33579063],[77.32008479,9.33752763],[77.32073516,9.33759755],[77.32409236,9.33704734],[77.32527081,9.3371187],[77.3251424,9.34051868],[77.32503761,9.34348453],[77.32536053,9.34490528],[77.3260202,9.34655282],[77.32674573,9.34760405],[77.32901112,9.34960985],[77.33025748,9.35144483],[77.33175603,9.35404028],[77.3333151,9.35632827],[77.33432927,9.35828466],[77.33577259,9.36104284],[77.33580608,9.36216439],[77.33543077,9.36266048],[77.33541112,9.36317596],[77.33571856,9.36392284],[77.33668305,9.36418793],[77.33730864,9.3649859],[77.33739861,9.36685357],[77.33780563,9.36768644],[77.33775793,9.36850492],[77.3370414,9.37047391],[77.33607517,9.37223473],[77.33661755,9.37512977],[77.33663019,9.37692509],[77.33641484,9.37731331],[77.33455897,9.37821668],[77.33434673,9.3791385],[77.33454071,9.38121882],[77.33512601,9.38179006],[77.33545342,9.38354602],[77.3359914,9.38624206],[77.33658437,9.38732492],[77.33896124,9.38723697],[77.33947504,9.38741473],[77.34138494,9.38980799],[77.34047847,9.39148298],[77.33981482,9.39251197],[77.33976119,9.39375045],[77.34044007,9.39497805],[77.34208453,9.39783642],[77.34358659,9.40083883],[77.34365459,9.40243916],[77.34237476,9.40404101],[77.33989004,9.40648844],[77.33828621,9.40826081],[77.33684086,9.41052167],[77.33637617,9.41190409],[77.3364812,9.41336029],[77.33728688,9.41499043],[77.33812614,9.41750696],[77.33884007,9.41922753],[77.33917309,9.41980597],[77.34024796,9.41961478],[77.34210477,9.4189694],[77.34494727,9.41695399],[77.34797246,9.41461394],[77.34848357,9.41389284],[77.34921265,9.41328067],[77.34965017,9.41288446],[77.35092411,9.41256263],[77.35205292,9.41209594],[77.35310982,9.41130399]]]]}}
]
}
